{"fetched_at":"2026-07-07T18:29:46.995Z","source":"https://celestrak.org/NORAD/elements/gp.php?NAME=SENTINEL&FORMAT=JSON","constellation":"sentinel-1","records":[{"OBJECT_NAME":"SENTINEL-1A","OBJECT_ID":"2014-016A","EPOCH":"2026-07-07T12:39:34.138944","CLASSIFICATION_TYPE":"U","MEAN_MOTION":14.59201095,"ECCENTRICITY":0.0001418,"INCLINATION":98.1784,"RA_OF_ASC_NODE":195.7634,"ARG_OF_PERICENTER":85.4106,"MEAN_ANOMALY":274.7256,"EPHEMERIS_TYPE":0,"NORAD_CAT_ID":39634,"ELEMENT_SET_NO":999,"REV_AT_EPOCH":65298,"BSTAR":0.000059131,"MEAN_MOTION_DOT":0.00000233,"MEAN_MOTION_DDOT":0},{"OBJECT_NAME":"SENTINEL-1C","OBJECT_ID":"2024-235A","EPOCH":"2026-07-07T11:57:33.207264","CLASSIFICATION_TYPE":"U","MEAN_MOTION":14.59198437,"ECCENTRICITY":0.0001381,"INCLINATION":98.1824,"RA_OF_ASC_NODE":195.517,"ARG_OF_PERICENTER":90.0146,"MEAN_ANOMALY":270.1212,"EPHEMERIS_TYPE":0,"NORAD_CAT_ID":62261,"ELEMENT_SET_NO":999,"REV_AT_EPOCH":8437,"BSTAR":0.000036032,"MEAN_MOTION_DOT":0.00000124,"MEAN_MOTION_DDOT":0},{"OBJECT_NAME":"SENTINEL-1D","OBJECT_ID":"2025-251A","EPOCH":"2026-07-07T11:08:24.129888","CLASSIFICATION_TYPE":"U","MEAN_MOTION":14.59197696,"ECCENTRICITY":0.0001335,"INCLINATION":98.1836,"RA_OF_ASC_NODE":195.5384,"ARG_OF_PERICENTER":91.52,"MEAN_ANOMALY":268.6153,"EPHEMERIS_TYPE":0,"NORAD_CAT_ID":66315,"ELEMENT_SET_NO":999,"REV_AT_EPOCH":3568,"BSTAR":-0.0000021272,"MEAN_MOTION_DOT":-5.6e-7,"MEAN_MOTION_DDOT":0}]}
