SENTINEL-1A             
1 39634U 14016A   26188.52747846  .00000233  00000+0  59131-4 0  9995
2 39634  98.1784 195.7634 0001418  85.4106 274.7256 14.59201095652986
SENTINEL-1C             
1 62261U 24235A   26188.49830101  .00000124  00000+0  36032-4 0  9998
2 62261  98.1824 195.5170 0001381  90.0146 270.1212 14.59198437 84370
SENTINEL-1D             
1 66315U 25251A   26188.46416817 -.00000056  00000+0 -21272-5 0  9999
2 66315  98.1836 195.5384 0001335  91.5200 268.6153 14.59197696 35682
